[{"OBJECT_NAME":"HYPERFIELD-1A","OBJECT_ID":"2024-149CY","EPOCH":"2026-03-09T18:21:25.814304","MEAN_MOTION":15.29681349,"ECCENTRICITY":0.00038648,"INCLINATION":97.3842,"RA_OF_ASC_NODE":149.5066,"ARG_OF_PERICENTER":313.7844,"MEAN_ANOMALY":46.3076,"EPHEMERIS_TYPE":0,"CLASSIFICATION_TYPE":"U","NORAD_CAT_ID":60562,"ELEMENT_SET_NO":999,"REV_AT_EPOCH":8683,"BSTAR":0.00030052114,"MEAN_MOTION_DOT":8.569e-5,"MEAN_MOTION_DDOT":0},{"OBJECT_NAME":"STARLINK-36032","OBJECT_ID":"2025-270G","EPOCH":"2026-03-09T22:49:57.193824","MEAN_MOTION":15.27608578,"ECCENTRICITY":0.0001142,"INCLINATION":43.0059,"RA_OF_ASC_NODE":54.896,"ARG_OF_PERICENTER":192.8941,"MEAN_ANOMALY":167.1882,"EPHEMERIS_TYPE":0,"CLASSIFICATION_TYPE":"U","NORAD_CAT_ID":66594,"ELEMENT_SET_NO":999,"REV_AT_EPOCH":1755,"BSTAR":0.0014897181,"MEAN_MOTION_DOT":0.00040995,"MEAN_MOTION_DDOT":0}]
